{"type": "FeatureCollection", "features": [ {"type": "Feature", "properties": {"norad_id": 44622, "name": "GAOFEN-10R", "group": "resource", "lat": 77.5714203803002, "lon": -114.09959568463728, "alt_km": 607.8424659024868, "timestamp": "2025-12-04T05:42:43.035643+00:00", "meta": {"OBJECT_NAME": "GAOFEN-10R", "OBJECT_ID": "2019-066A", "EPOCH": "2025-12-04T00:29:31.236288", "MEAN_MOTION": 14.82743191, "ECCENTRICITY": 0.00082251, "INCLINATION": 98.0264, "RA_OF_ASC_NODE": 285.4936, "ARG_OF_PERICENTER": 65.7752, "MEAN_ANOMALY": 294.4319, "EPHEMERIS_TYPE": 0, "CLASSIFICATION_TYPE": "U", "NORAD_CAT_ID": 44622, "ELEMENT_SET_NO": 999, "REV_AT_EPOCH": 33345, "BSTAR": 0.0004459857, "MEAN_MOTION_DOT": 3.55e-05, "MEAN_MOTION_DDOT": 0}, "tle": {"line1": "1 44622U 19066A   25338.02050042  .00003550  00000+0  44599-3 0  9990", "line2": "2 44622  98.0264 285.4936 0008225  65.7752 294.4319 14.82743191333455"}}, "geometry": {"type": "Point", "coordinates": [-114.09959568463728, 77.5714203803002]}}, {"type": "Feature", "properties": {"norad_id": 44804, "name": "CARTOSAT-3", "group": "resource", "lat": -28.16781482499079, "lon": -146.09505796370755, "alt_km": 514.7580176266702, "timestamp": "2025-12-04T05:42:43.035653+00:00", "meta": {"OBJECT_NAME": "CARTOSAT-3", "OBJECT_ID": "2019-081A", "EPOCH": "2025-12-03T22:28:34.228128", "MEAN_MOTION": 15.19246073, "ECCENTRICITY": 0.00138642, "INCLINATION": 97.4603, "RA_OF_ASC_NODE": 37.6308, "ARG_OF_PERICENTER": 114.825, "MEAN_ANOMALY": 245.4428, "EPHEMERIS_TYPE": 0, "CLASSIFICATION_TYPE": "U", "NORAD_CAT_ID": 44804, "ELEMENT_SET_NO": 999, "REV_AT_EPOCH": 33382, "BSTAR": 0.00030082995, "MEAN_MOTION_DOT": 6.287e-05, "MEAN_MOTION_DDOT": 0}, "tle": {"line1": "1 44804U 19081A   25337.93650727  .00006287  00000+0  30083-3 0  9997", "line2": "2 44804  97.4603  37.6308 0013864 114.8250 245.4428 15.19246073333827"}}, "geometry": {"type": "Point", "coordinates": [-146.09505796370755, -28.16781482499079]}}, {"type": "Feature", "properties": {"norad_id": 44819, "name": "GAOFEN-12 01", "group": "resource", "lat": 51.69383006308649, "lon": -25.267643542632996, "alt_km": 622.947277826931, "timestamp": "2025-12-04T05:42:43.035663+00:00", "meta": {"OBJECT_NAME": "GAOFEN-12 01", "OBJECT_ID": "2019-082A", "EPOCH": "2025-12-04T00:36:37.724832", "MEAN_MOTION": 14.80641726, "ECCENTRICITY": 0.00012513, "INCLINATION": 97.8128, "RA_OF_ASC_NODE": 344.5352, "ARG_OF_PERICENTER": 293.9449, "MEAN_ANOMALY": 66.1632, "EPHEMERIS_TYPE": 0, "CLASSIFICATION_TYPE": "U", "NORAD_CAT_ID": 44819, "ELEMENT_SET_NO": 999, "REV_AT_EPOCH": 32521, "BSTAR": 0.00013820638, "MEAN_MOTION_DOT": 1.011e-05, "MEAN_MOTION_DDOT": 0}, "tle": {"line1": "1 44819U 19082A   25338.02543663  .00001011  00000+0  13821-3 0  9996", "line2": "2 44819  97.8128 344.5352 0001251 293.9449  66.1632 14.80641726325214"}}, "geometry": {"type": "Point", "coordinates": [-25.267643542632996, 51.69383006308649]}}, {"type": "Feature", "properties": {"norad_id": 44873, "name": "CSG-1", "group": "resource", "lat": 61.59608911987384, "lon": -5.469615008345519, "alt_km": 615.6915401271799, "timestamp": "2025-12-04T05:42:43.035673+00:00", "meta": {"OBJECT_NAME": "CSG-1", "OBJECT_ID": "2019-092A", "EPOCH": "2025-12-04T00:19:25.599072", "MEAN_MOTION": 14.82144954, "ECCENTRICITY": 0.00014726, "INCLINATION": 97.8806, "RA_OF_ASC_NODE": 159.469, "ARG_OF_PERICENTER": 86.9899, "MEAN_ANOMALY": 273.1483, "EPHEMERIS_TYPE": 0, "CLASSIFICATION_TYPE": "U", "NORAD_CAT_ID": 44873, "ELEMENT_SET_NO": 999, "REV_AT_EPOCH": 32256, "BSTAR": 0.00014123099, "MEAN_MOTION_DOT": 1.072e-05, "MEAN_MOTION_DDOT": 0}, "tle": {"line1": "1 44873U 19092A   25338.01349073  .00001072  00000+0  14123-3 0  9998", "line2": "2 44873  97.8806 159.4690 0001472  86.9899 273.1483 14.82144954322561"}}, "geometry": {"type": "Point", "coordinates": [-5.469615008345519, 61.59608911987384]}}, {"type": "Feature", "properties": {"norad_id": 46277, "name": "NEMO-HD", "group": "resource", "lat": -56.59445509029962, "lon": 48.53337417061053, "alt_km": 453.93945304341105, "timestamp": "2025-12-04T05:42:43.035683+00:00", "meta": {"OBJECT_NAME": "NEMO-HD", "OBJECT_ID": "2020-061F", "EPOCH": "2025-12-03T22:09:48.062880", "MEAN_MOTION": 15.40047504, "ECCENTRICITY": 0.00023445, "INCLINATION": 97.2231, "RA_OF_ASC_NODE": 37.1355, "ARG_OF_PERICENTER": 67.3831, "MEAN_ANOMALY": 292.7663, "EPHEMERIS_TYPE": 0, "CLASSIFICATION_TYPE": "U", "NORAD_CAT_ID": 46277, "ELEMENT_SET_NO": 999, "REV_AT_EPOCH": 29188, "BSTAR": 0.00049768842, "MEAN_MOTION_DOT": 0.00019834, "MEAN_MOTION_DDOT": 0}, "tle": {"line1": "1 46277U 20061F   25337.92347295  .00019834  00000+0  49769-3 0  9998", "line2": "2 46277  97.2231  37.1355 0002344  67.3831 292.7663 15.40047504291880"}}, "geometry": {"type": "Point", "coordinates": [48.53337417061053, -56.59445509029962]}}, {"type": "Feature", "properties": {"norad_id": 46984, "name": "SENTINEL-6A", "group": "resource", "lat": 37.28201637826716, "lon": -19.820090866102806, "alt_km": 1337.948717135083, "timestamp": "2025-12-04T05:42:43.035693+00:00", "meta": {"OBJECT_NAME": "SENTINEL-6A", "OBJECT_ID": "2020-086A", "EPOCH": "2025-12-03T21:29:45.509568", "MEAN_MOTION": 12.80930156, "ECCENTRICITY": 0.00077375, "INCLINATION": 66.039, "RA_OF_ASC_NODE": 180.6775, "ARG_OF_PERICENTER": 269.1609, "MEAN_ANOMALY": 90.852, "EPHEMERIS_TYPE": 0, "CLASSIFICATION_TYPE": "U", "NORAD_CAT_ID": 46984, "ELEMENT_SET_NO": 999, "REV_AT_EPOCH": 23531, "BSTAR": 0.00017950517, "MEAN_MOTION_DOT": -2e-07, "MEAN_MOTION_DDOT": 0}, "tle": {"line1": "1 46984U 20086A   25337.89566562 -.00000020  00000+0  17951-3 0  9992", "line2": "2 46984  66.0390 180.6775 0007737 269.1609  90.8520 12.80930156235311"}}, "geometry": {"type": "Point", "coordinates": [-19.820090866102806, 37.28201637826716]}}, {"type": "Feature", "properties": {"norad_id": 48079, "name": "GAOFEN-12 02", "group": "resource", "lat": 61.912717000923465, "lon": -42.96390183930889, "alt_km": 619.8911427839475, "timestamp": "2025-12-04T05:42:43.035703+00:00", "meta": {"OBJECT_NAME": "GAOFEN-12 02", "OBJECT_ID": "2021-026A", "EPOCH": "2025-12-03T22:56:27.538656", "MEAN_MOTION": 14.80658357, "ECCENTRICITY": 0.00032798, "INCLINATION": 97.9849, "RA_OF_ASC_NODE": 332.0049, "ARG_OF_PERICENTER": 118.5702, "MEAN_ANOMALY": 241.5841, "EPHEMERIS_TYPE": 0, "CLASSIFICATION_TYPE": "U", "NORAD_CAT_ID": 48079, "ELEMENT_SET_NO": 999, "REV_AT_EPOCH": 25287, "BSTAR": 0.00012805909, "MEAN_MOTION_DOT": 9.31e-06, "MEAN_MOTION_DDOT": 0}, "tle": {"line1": "1 48079U 21026A   25337.95587429  .00000931  00000+0  12806-3 0  9990", "line2": "2 48079  97.9849 332.0049 0003279 118.5702 241.5841 14.80658357252878"}}, "geometry": {"type": "Point", "coordinates": [-42.96390183930889, 61.912717000923465]}}, {"type": "Feature", "properties": {"norad_id": 48268, "name": "PLEIADES NEO 3", "group": "resource", "lat": 77.7564278871487, "lon": -89.44882172977711, "alt_km": 615.880869240852, "timestamp": "2025-12-04T05:42:43.035713+00:00", "meta": {"OBJECT_NAME": "PLEIADES NEO 3", "OBJECT_ID": "2021-034A", "EPOCH": "2025-12-03T22:46:55.531776", "MEAN_MOTION": 14.81671491, "ECCENTRICITY": 0.00012848, "INCLINATION": 97.8948, "RA_OF_ASC_NODE": 50.516, "ARG_OF_PERICENTER": 90.3792, "MEAN_ANOMALY": 269.7568, "EPHEMERIS_TYPE": 0, "CLASSIFICATION_TYPE": "U", "NORAD_CAT_ID": 48268, "ELEMENT_SET_NO": 999, "REV_AT_EPOCH": 24874, "BSTAR": -1.86437e-06, "MEAN_MOTION_DOT": -6.7e-07, "MEAN_MOTION_DDOT": 0}, "tle": {"line1": "1 48268U 21034A   25337.94925384 -.00000067  00000+0 -18644-5 0  9994", "line2": "2 48268  97.8948  50.5160 0001284  90.3792 269.7568 14.81671491248747"}}, "geometry": {"type": "Point", "coordinates": [-89.44882172977711, 77.7564278871487]}}, {"type": "Feature", "properties": {"norad_id": 49070, "name": "PLEIADES NEO 4", "group": "resource", "lat": -77.74153882758266, "lon": 90.48802726839408, "alt_km": 632.3105925678638, "timestamp": "2025-12-04T05:42:43.035723+00:00", "meta": {"OBJECT_NAME": "PLEIADES NEO 4", "OBJECT_ID": "2021-073E", "EPOCH": "2025-12-03T21:58:17.128128", "MEAN_MOTION": 14.81671959, "ECCENTRICITY": 0.00013149, "INCLINATION": 97.8949, "RA_OF_ASC_NODE": 50.4786, "ARG_OF_PERICENTER": 97.6472, "MEAN_ANOMALY": 262.489, "EPHEMERIS_TYPE": 0, "CLASSIFICATION_TYPE": "U", "NORAD_CAT_ID": 49070, "ELEMENT_SET_NO": 999, "REV_AT_EPOCH": 23245, "BSTAR": 2.756036e-06, "MEAN_MOTION_DOT": -3e-07, "MEAN_MOTION_DDOT": 0}, "tle": {"line1": "1 49070U 21073E   25337.91547602 -.00000030  00000+0  27560-5 0  9995", "line2": "2 49070  97.8949  50.4786 0001314  97.6472 262.4890 14.81671959232450"}}, "geometry": {"type": "Point", "coordinates": [90.48802726839408, -77.74153882758266]}}, {"type": "Feature", "properties": {"norad_id": 49260, "name": "LANDSAT 9", "group": "resource", "lat": -33.300866816346186, "lon": 51.914011364074895, "alt_km": 709.0876959037214, "timestamp": "2025-12-04T05:42:43.035733+00:00", "meta": {"OBJECT_NAME": "LANDSAT 9", "OBJECT_ID": "2021-088A", "EPOCH": "2025-12-03T18:19:47.348544", "MEAN_MOTION": 14.57115156, "ECCENTRICITY": 0.00010677, "INCLINATION": 98.2103, "RA_OF_ASC_NODE": 46.0043, "ARG_OF_PERICENTER": 92.7732, "MEAN_ANOMALY": 267.3589, "EPHEMERIS_TYPE": 0, "CLASSIFICATION_TYPE": "U", "NORAD_CAT_ID": 49260, "ELEMENT_SET_NO": 999, "REV_AT_EPOCH": 22254, "BSTAR": 0.0001715529, "MEAN_MOTION_DOT": 7.28e-06, "MEAN_MOTION_DDOT": 0}, "tle": {"line1": "1 49260U 21088A   25337.76374246  .00000728  00000+0  17155-3 0  9997", "line2": "2 49260  98.2103  46.0043 0001067  92.7732 267.3589 14.57115156222548"}}, "geometry": {"type": "Point", "coordinates": [51.914011364074895, -33.300866816346186]}}]}